[{"OBJECT_NAME":"STARLINK-32372","OBJECT_ID":"2024-210B","EPOCH":"2026-03-09T07:10:04.380384","MEAN_MOTION":15.27605117,"ECCENTRICITY":0.00018737,"INCLINATION":42.9993,"RA_OF_ASC_NODE":181.7408,"ARG_OF_PERICENTER":287.3344,"MEAN_ANOMALY":72.7303,"EPHEMERIS_TYPE":0,"CLASSIFICATION_TYPE":"U","NORAD_CAT_ID":61960,"ELEMENT_SET_NO":999,"REV_AT_EPOCH":7472,"BSTAR":0.001371145,"MEAN_MOTION_DOT":0.00037691,"MEAN_MOTION_DDOT":0},{"OBJECT_NAME":"DMSP 5D-2 F13 DEB","OBJECT_ID":"1995-015HL","EPOCH":"2026-02-09T02:06:19.247328","MEAN_MOTION":15.12822218,"ECCENTRICITY":0.00117732,"INCLINATION":98.8603,"RA_OF_ASC_NODE":96.8879,"ARG_OF_PERICENTER":223.037,"MEAN_ANOMALY":136.9936,"EPHEMERIS_TYPE":0,"CLASSIFICATION_TYPE":"U","NORAD_CAT_ID":42294,"ELEMENT_SET_NO":999,"REV_AT_EPOCH":55633,"BSTAR":0.010466292,"MEAN_MOTION_DOT":0.00188804,"MEAN_MOTION_DDOT":0}]
